OBJECT_NAME,OBJECT_ID,EPOCH,MEAN_MOTION,ECCENTRICITY,INCLINATION,RA_OF_ASC_NODE,ARG_OF_PERICENTER,MEAN_ANOMALY,EPHEMERIS_TYPE,CLASSIFICATION_TYPE,NORAD_CAT_ID,ELEMENT_SET_NO,REV_AT_EPOCH,BSTAR,MEAN_MOTION_DOT,MEAN_MOTION_DDOT
SCD 1,1993-009B,2026-07-01T22:23:18.767040,14.46124533,.00416343,24.9688,116.5278,294.1707,126.9210,0,U,22490,999,76325,.68852112E-4,.438E-5,0
TECHSAT 1B (GO-32),1998-043D,2026-07-01T22:56:29.059296,14.24431243,.00017482,99.0073,176.0873,136.2433,223.8884,0,U,25397,999,45343,.43718073E-4,.54E-6,0
SCD 2,1998-060A,2026-07-01T21:14:29.370624,14.45531272,.00165332,24.9966,341.5193,278.6953,216.4700,0,U,25504,999,46245,.57926226E-4,.39E-5,0
DLR-TUBSAT,1999-029B,2026-07-01T23:12:31.860288,14.52430667,.00132455,98.6701,178.9577,308.3805,51.6199,0,U,25757,999,43539,.39487478E-4,.112E-5,0
TERRA,1999-068A,2026-07-01T21:35:14.824896,14.61114918,.0002699,97.9448,231.8619,150.2199,23.0372,0,U,25994,999,41175,.10011493E-3,.448E-5,0
MAROC-TUBSAT,2001-056D,2026-07-01T22:01:56.337024,13.70263047,.00206068,99.8089,0.0556,104.7798,57.9213,0,U,27004,999,22820,.14031389E-4,-.34E-6,0
AQUA,2002-022A,2026-07-01T21:39:25.816896,14.62180459,.0000699,98.4284,152.4798,79.7486,333.3720,0,U,27424,999,28542,.1732053E-3,.822E-5,0
SHIYAN-1 (SY-1),2004-012A,2026-07-01T05:00:47.244096,15.34119673,.00043959,97.8690,261.1911,339.9341,20.1727,0,U,28220,999,21324,.54963777E-3,.1809E-3,0
AURA,2004-026A,2026-07-01T21:54:22.235040,14.61351324,.00011781,98.3423,139.4886,86.2101,273.9234,0,U,28376,999,16836,.1788977E-3,.836E-5,0
IRS-P5 (CARTOSAT-1),2005-017A,2026-07-01T18:35:50.523648,14.91087863,.00021334,97.5305,205.1777,62.6411,297.5025,0,U,28649,999,14599,.14153631E-3,.135E-4,0
SINAH 1,2005-043D,2026-07-01T22:50:59.508960,14.64167791,.00135103,98.2880,317.3623,226.3782,133.6301,0,U,28893,999,10268,.77214486E-4,.357E-5,0
RESURS-DK 1,2006-021A,2026-07-01T12:16:52.331520,15.13275435,.00066857,69.9341,302.4724,284.9688,75.0738,0,U,29228,999,10474,.13466925E-3,.2294E-4,0
ARIRANG-2 (KOMPSAT-2),2006-031A,2026-07-01T23:59:15.803808,14.64670023,.00153482,97.8302,6.7291,31.3151,128.1936,0,U,29268,999,6364,.11520572E-3,.569E-5,0
LAPAN-TUBSAT,2007-001A,2026-07-02T00:01:53.912352,14.85962554,.00130238,98.1339,182.5595,132.8115,227.4197,0,U,29709,999,5335,.7975171E-5,.12E-6,0
HAIYANG-1B,2007-010A,2026-07-01T21:33:03.250656,14.31030546,.00139812,98.3502,164.1730,152.9001,207.2915,0,U,31113,999,274,.51588436E-4,.94E-6,0
COSMO-SKYMED 1,2007-023A,2026-07-01T23:20:23.689824,14.97174842,.00014091,97.8854,14.9531,83.7111,276.4271,0,U,31598,999,3200,.18851957E-3,.2119E-4,0
TERRASAR-X,2007-026A,2026-07-01T14:48:18.219456,15.19153219,.00019481,97.4453,190.1187,88.1804,271.9654,0,U,31698,999,5541,.35948941E-4,.688E-5,0
WORLDVIEW-1 (WV-1),2007-041A,2026-07-01T22:20:13.869312,15.24429911,.00009978,97.3896,302.4645,308.4466,51.6681,0,U,32060,999,4512,.29808355E-3,.7243E-4,0
YAOGAN-3,2007-055A,2026-07-01T23:03:22.675968,14.90836558,.00017216,97.8141,212.6924,84.5764,275.5651,0,U,32289,999,807,.29735301E-3,.2872E-4,0
COSMO-SKYMED 2,2007-059A,2026-07-01T22:42:01.165248,14.82157615,.00013277,97.8889,6.3298,90.3508,269.7857,0,U,32376,999,419,.61106471E-4,.434E-5,0
RADARSAT-2,2007-061A,2026-07-01T22:35:54.727296,14.29980103,.00013042,98.5772,189.6629,84.5494,275.5837,0,U,32382,999,96806,-.26715899E-4,-.112E-5,0
CARTOSAT-2A,2008-021A,2026-07-01T23:53:45.335040,14.79259489,.00132486,97.7626,231.1984,66.0353,294.2245,0,U,32783,999,98099,.50380429E-4,.325E-5,0
HUANJING 1A (HJ-1A),2008-041A,2026-07-01T22:23:14.364096,14.84022309,.002071,97.6684,168.2013,89.6775,270.6813,0,U,33320,999,96059,.19345089E-3,.1566E-4,0
HUANJING 1B (HJ-1B),2008-041B,2026-07-01T23:25:33.027744,14.83340515,.00373376,97.6519,171.3698,132.9908,227.4446,0,U,33321,999,96060,.61662899E-4,.459E-5,0
GEOEYE 1,2008-042A,2026-07-01T21:47:17.952288,14.64639658,.0004936,98.1334,256.6589,27.9014,332.2452,0,U,33331,999,95230,.10293202E-3,.499E-5,0
THEOS,2008-049A,2026-07-01T21:43:53.654304,14.20134849,.00011297,98.5566,239.7107,81.2282,278.9023,0,U,33396,999,92005,-.23182436E-4,-.92E-6,0
COSMO-SKYMED 3,2008-054A,2026-07-01T22:48:09.387360,15.07045951,.00147839,97.8263,41.7651,212.6527,147.3787,0,U,33412,999,95916,.34704318E-3,.515E-4,0
YAOGAN-4,2008-061A,2026-07-01T06:24:04.518144,14.83228426,.0015019,97.9308,115.6732,30.1557,330.0518,0,U,33446,999,94775,.1514E-3,.1185E-4,0
GOSAT (IBUKI),2009-002A,2026-06-30T18:35:41.844768,14.67536972,.00012163,98.0904,292.6868,80.5142,279.6200,0,U,33492,999,93345,-.1958554E-5,-.59E-6,0
DEIMOS-1,2009-041A,2026-07-01T23:20:31.646400,14.75251585,.00023913,97.7414,339.5596,110.2736,249.8731,0,U,35681,999,90906,.46900711E-4,.27E-5,0
