SCD 1                   
1 22490U 93009B   26182.93285610  .00000438  00000+0  68852-4 0  9998
2 22490  24.9688 116.5278 0041634 294.1707 126.9210 14.46124533763251
TECHSAT 1B (GO-32)      
1 25397U 98043D   26182.95589189  .00000054  00000+0  43718-4 0  9998
2 25397  99.0073 176.0873 0001748 136.2433 223.8884 14.24431243453432
SCD 2                   
1 25504U 98060A   26182.88506216  .00000390  00000+0  57926-4 0  9998
2 25504  24.9966 341.5193 0016533 278.6953 216.4700 14.45531272462453
DLR-TUBSAT              
1 25757U 99029B   26182.96703542  .00000112  00000+0  39487-4 0  9998
2 25757  98.6701 178.9577 0013245 308.3805  51.6199 14.52430667435398
TERRA                   
1 25994U 99068A   26182.89947714  .00000448  00000+0  10011-3 0  9990
2 25994  97.9448 231.8619 0002699 150.2199  23.0372 14.61114918411756
MAROC-TUBSAT            
1 27004U 01056D   26182.91801316 -.00000034  00000+0  14031-4 0  9993
2 27004  99.8089   0.0556 0020606 104.7798  57.9213 13.70263047228208
AQUA                    
1 27424U 02022A   26182.90238214  .00000822  00000+0  17321-3 0  9991
2 27424  98.4284 152.4798 0000699  79.7486 333.3720 14.62180459285429
SHIYAN-1 (SY-1)         
1 28220U 04012A   26182.20888014  .00018090  00000+0  54964-3 0  9999
2 28220  97.8690 261.1911 0004395 339.9341  20.1727 15.34119673213240
AURA                    
1 28376U 04026A   26182.91275735  .00000836  00000+0  17890-3 0  9990
2 28376  98.3423 139.4886 0001178  86.2101 273.9234 14.61351324168365
IRS-P5 (CARTOSAT-1)     
1 28649U 05017A   26182.77489032  .00001350  00000+0  14154-3 0  9997
2 28649  97.5305 205.1777 0002133  62.6411 297.5025 14.91087863145993
SINAH 1                 
1 28893U 05043D   26182.95207765  .00000357  00000+0  77214-4 0  9991
2 28893  98.2880 317.3623 0013510 226.3782 133.6301 14.64167791102682
RESURS-DK 1             
1 29228U 06021A   26182.51171680  .00002294  00000+0  13467-3 0  9990
2 29228  69.9341 302.4724 0006685 284.9688  75.0738 15.13275435104741
ARIRANG-2 (KOMPSAT-2)   
1 29268U 06031A   26182.99948847  .00000569  00000+0  11521-3 0  9996
2 29268  97.8302   6.7291 0015348  31.3151 128.1936 14.64670023 63640
LAPAN-TUBSAT            
1 29709U 07001A   26183.00131843  .00000012  00000+0  79752-5 0  9992
2 29709  98.1339 182.5595 0013023 132.8115 227.4197 14.85962554 53354
HAIYANG-1B              
1 31113U 07010A   26182.89795429  .00000094  00000+0  51588-4 0  9992
2 31113  98.3502 164.1730 0013981 152.9001 207.2915 14.31030546  2746
COSMO-SKYMED 1          
1 31598U 07023A   26182.97249641  .00002119  00000+0  18852-3 0  9998
2 31598  97.8854  14.9531 0001409  83.7111 276.4271 14.97174842 32008
TERRASAR-X              
1 31698U 07026A   26182.61687754  .00000688  00000+0  35949-4 0  9990
2 31698  97.4453 190.1187 0001948  88.1804 271.9654 15.19153219 55415
WORLDVIEW-1 (WV-1)      
1 32060U 07041A   26182.93071608  .00007243  00000+0  29808-3 0  9991
2 32060  97.3896 302.4645 0000997 308.4466  51.6681 15.24429911 45122
YAOGAN-3                
1 32289U 07055A   26182.96067912  .00002872  00000+0  29735-3 0  9997
2 32289  97.8141 212.6924 0001721  84.5764 275.5651 14.90836558  8072
COSMO-SKYMED 2          
1 32376U 07059A   26182.94584682  .00000434  00000+0  61106-4 0  9995
2 32376  97.8889   6.3298 0001327  90.3508 269.7857 14.82157615  4196
RADARSAT-2              
1 32382U 07061A   26182.94160564 -.00000112  00000+0 -26716-4 0  9997
2 32382  98.5772 189.6629 0001304  84.5494 275.5837 14.29980103968064
CARTOSAT-2A             
1 32783U 08021A   26182.99566360  .00000325  00000+0  50380-4 0  9996
2 32783  97.7626 231.1984 0013248  66.0353 294.2245 14.79259489980992
HUANJING 1A (HJ-1A)     
1 33320U 08041A   26182.93280514  .00001566  00000+0  19345-3 0  9997
2 33320  97.6684 168.2013 0020710  89.6775 270.6813 14.84022309960595
HUANJING 1B (HJ-1B)     
1 33321U 08041B   26182.97607671  .00000459  00000+0  61663-4 0  9990
2 33321  97.6519 171.3698 0037337 132.9908 227.4446 14.83340515960605
GEOEYE 1                
1 33331U 08042A   26182.90784667  .00000499  00000+0  10293-3 0  9992
2 33331  98.1334 256.6589 0004936  27.9014 332.2452 14.64639658952301
THEOS                   
1 33396U 08049A   26182.90548211 -.00000092  00000+0 -23182-4 0  9996
2 33396  98.5566 239.7107 0001129  81.2282 278.9023 14.20134849920053
COSMO-SKYMED 3          
1 33412U 08054A   26182.95010865  .00005150  00000+0  34704-3 0  9994
2 33412  97.8263  41.7651 0014783 212.6527 147.3787 15.07045951959166
YAOGAN-4                
1 33446U 08061A   26182.26671896  .00001185  00000+0  15140-3 0  9997
2 33446  97.9308 115.6732 0015019  30.1557 330.0518 14.83228426947752
GOSAT (IBUKI)           
1 33492U 09002A   26181.77478987 -.00000059  00000+0 -19586-5 0  9996
2 33492  98.0904 292.6868 0001216  80.5142 279.6200 14.67536972933454
DEIMOS-1                
1 35681U 09041A   26182.97258850  .00000270  00000+0  46901-4 0  9992
2 35681  97.7414 339.5596 0002391 110.2736 249.8731 14.75251585909063
